{"fetched_at":"2026-07-24T07:06:32.171Z","source":"https://celestrak.org/NORAD/elements/gp.php?NAME=HAWK&FORMAT=JSON","constellation":"hawkeye-360","records":[{"OBJECT_NAME":"HAWK-7B","OBJECT_ID":"2023-054R","EPOCH":"2026-07-23T09:37:45.651648","CLASSIFICATION_TYPE":"U","MEAN_MOTION":15.27698304,"ECCENTRICITY":0.000041,"INCLINATION":97.2682,"RA_OF_ASC_NODE":89.0937,"ARG_OF_PERICENTER":352.9552,"MEAN_ANOMALY":7.1682,"EPHEMERIS_TYPE":0,"NORAD_CAT_ID":56193,"ELEMENT_SET_NO":999,"REV_AT_EPOCH":18255,"BSTAR":0.0002101,"MEAN_MOTION_DOT":0.00005614,"MEAN_MOTION_DDOT":0},{"OBJECT_NAME":"HAWK-7C","OBJECT_ID":"2023-054Y","EPOCH":"2026-07-23T15:54:51.615360","CLASSIFICATION_TYPE":"U","MEAN_MOTION":15.2769992,"ECCENTRICITY":0.0000345,"INCLINATION":97.2656,"RA_OF_ASC_NODE":90.1068,"ARG_OF_PERICENTER":239.9854,"MEAN_ANOMALY":120.1351,"EPHEMERIS_TYPE":0,"NORAD_CAT_ID":56200,"ELEMENT_SET_NO":999,"REV_AT_EPOCH":18259,"BSTAR":0.00019896,"MEAN_MOTION_DOT":0.00005313,"MEAN_MOTION_DDOT":0},{"OBJECT_NAME":"HAWK-8A","OBJECT_ID":"2024-066B","EPOCH":"2026-07-23T16:39:06.283872","CLASSIFICATION_TYPE":"U","MEAN_MOTION":14.99299204,"ECCENTRICITY":0.0003492,"INCLINATION":45.5991,"RA_OF_ASC_NODE":87.8694,"ARG_OF_PERICENTER":252.639,"MEAN_ANOMALY":107.4109,"EPHEMERIS_TYPE":0,"NORAD_CAT_ID":59443,"ELEMENT_SET_NO":999,"REV_AT_EPOCH":12531,"BSTAR":0.00010441,"MEAN_MOTION_DOT":0.00001063,"MEAN_MOTION_DDOT":0},{"OBJECT_NAME":"HAWK-8B","OBJECT_ID":"2024-066D","EPOCH":"2026-07-23T18:15:44.515296","CLASSIFICATION_TYPE":"U","MEAN_MOTION":14.99297823,"ECCENTRICITY":0.00037,"INCLINATION":45.6169,"RA_OF_ASC_NODE":89.5182,"ARG_OF_PERICENTER":256.8195,"MEAN_ANOMALY":103.2274,"EPHEMERIS_TYPE":0,"NORAD_CAT_ID":59445,"ELEMENT_SET_NO":999,"REV_AT_EPOCH":12531,"BSTAR":0.000074331,"MEAN_MOTION_DOT":0.0000069,"MEAN_MOTION_DDOT":0},{"OBJECT_NAME":"HAWK-9A","OBJECT_ID":"2024-066E","EPOCH":"2026-07-23T17:13:13.598400","CLASSIFICATION_TYPE":"U","MEAN_MOTION":14.99234765,"ECCENTRICITY":0.0003383,"INCLINATION":45.6102,"RA_OF_ASC_NODE":88.4056,"ARG_OF_PERICENTER":241.2781,"MEAN_ANOMALY":118.7761,"EPHEMERIS_TYPE":0,"NORAD_CAT_ID":59446,"ELEMENT_SET_NO":999,"REV_AT_EPOCH":12531,"BSTAR":0.00011495,"MEAN_MOTION_DOT":0.00001191,"MEAN_MOTION_DDOT":0},{"OBJECT_NAME":"HAWK-9C","OBJECT_ID":"2024-066G","EPOCH":"2026-07-23T17:13:36.837408","CLASSIFICATION_TYPE":"U","MEAN_MOTION":14.99234583,"ECCENTRICITY":0.0003325,"INCLINATION":45.6074,"RA_OF_ASC_NODE":87.501,"ARG_OF_PERICENTER":228.4431,"MEAN_ANOMALY":131.6165,"EPHEMERIS_TYPE":0,"NORAD_CAT_ID":59448,"ELEMENT_SET_NO":999,"REV_AT_EPOCH":12531,"BSTAR":0.00012259,"MEAN_MOTION_DOT":0.00001285,"MEAN_MOTION_DDOT":0},{"OBJECT_NAME":"HAWK-8C","OBJECT_ID":"2024-066H","EPOCH":"2026-07-23T16:38:59.701056","CLASSIFICATION_TYPE":"U","MEAN_MOTION":14.99296771,"ECCENTRICITY":0.0003064,"INCLINATION":45.6083,"RA_OF_ASC_NODE":88.8756,"ARG_OF_PERICENTER":260.286,"MEAN_ANOMALY":99.7675,"EPHEMERIS_TYPE":0,"NORAD_CAT_ID":59449,"ELEMENT_SET_NO":999,"REV_AT_EPOCH":12530,"BSTAR":0.00010364,"MEAN_MOTION_DOT":0.00001053,"MEAN_MOTION_DDOT":0},{"OBJECT_NAME":"HAWK-9B","OBJECT_ID":"2024-066J","EPOCH":"2026-07-23T20:25:36.229728","CLASSIFICATION_TYPE":"U","MEAN_MOTION":14.99231959,"ECCENTRICITY":0.0003654,"INCLINATION":45.6123,"RA_OF_ASC_NODE":88.653,"ARG_OF_PERICENTER":224.786,"MEAN_ANOMALY":135.2727,"EPHEMERIS_TYPE":0,"NORAD_CAT_ID":59450,"ELEMENT_SET_NO":999,"REV_AT_EPOCH":12533,"BSTAR":0.00013149,"MEAN_MOTION_DOT":0.00001395,"MEAN_MOTION_DDOT":0},{"OBJECT_NAME":"HAWK-10A","OBJECT_ID":"2024-149CA","EPOCH":"2026-07-23T11:24:22.152960","CLASSIFICATION_TYPE":"U","MEAN_MOTION":14.9660454,"ECCENTRICITY":0.0002278,"INCLINATION":97.6874,"RA_OF_ASC_NODE":279.7625,"ARG_OF_PERICENTER":328.6845,"MEAN_ANOMALY":31.424,"EPHEMERIS_TYPE":0,"NORAD_CAT_ID":60540,"ELEMENT_SET_NO":999,"REV_AT_EPOCH":10541,"BSTAR":0.00011657,"MEAN_MOTION_DOT":0.0000127,"MEAN_MOTION_DDOT":0},{"OBJECT_NAME":"HAWK-10B","OBJECT_ID":"2024-149CF","EPOCH":"2026-07-23T16:13:00.636384","CLASSIFICATION_TYPE":"U","MEAN_MOTION":14.96604625,"ECCENTRICITY":0.0004465,"INCLINATION":97.6794,"RA_OF_ASC_NODE":279.2774,"ARG_OF_PERICENTER":345.2405,"MEAN_ANOMALY":14.8685,"EPHEMERIS_TYPE":0,"NORAD_CAT_ID":60545,"ELEMENT_SET_NO":999,"REV_AT_EPOCH":10544,"BSTAR":0.00012232,"MEAN_MOTION_DOT":0.00001336,"MEAN_MOTION_DDOT":0},{"OBJECT_NAME":"HAWK-10C","OBJECT_ID":"2024-149DM","EPOCH":"2026-07-23T03:23:17.217600","CLASSIFICATION_TYPE":"U","MEAN_MOTION":14.96603523,"ECCENTRICITY":0.00019031,"INCLINATION":97.6714,"RA_OF_ASC_NODE":278.0548,"ARG_OF_PERICENTER":311.9285,"MEAN_ANOMALY":48.1774,"EPHEMERIS_TYPE":0,"NORAD_CAT_ID":60575,"ELEMENT_SET_NO":999,"REV_AT_EPOCH":10536,"BSTAR":0.00013201243,"MEAN_MOTION_DOT":0.00001446,"MEAN_MOTION_DDOT":0},{"OBJECT_NAME":"HAWK-11B","OBJECT_ID":"2024-247C","EPOCH":"2026-07-23T17:16:06.871008","CLASSIFICATION_TYPE":"U","MEAN_MOTION":15.30752333,"ECCENTRICITY":0.00023,"INCLINATION":45.0157,"RA_OF_ASC_NODE":89.435,"ARG_OF_PERICENTER":88.4514,"MEAN_ANOMALY":271.6634,"EPHEMERIS_TYPE":0,"NORAD_CAT_ID":62379,"ELEMENT_SET_NO":999,"REV_AT_EPOCH":8860,"BSTAR":0.00021014,"MEAN_MOTION_DOT":0.00006065,"MEAN_MOTION_DDOT":0},{"OBJECT_NAME":"HAWK-11C","OBJECT_ID":"2024-247E","EPOCH":"2026-07-23T17:15:28.754784","CLASSIFICATION_TYPE":"U","MEAN_MOTION":15.30753509,"ECCENTRICITY":0.0003057,"INCLINATION":45.0045,"RA_OF_ASC_NODE":88.7589,"ARG_OF_PERICENTER":69.277,"MEAN_ANOMALY":290.8441,"EPHEMERIS_TYPE":0,"NORAD_CAT_ID":62381,"ELEMENT_SET_NO":999,"REV_AT_EPOCH":8860,"BSTAR":0.00021921,"MEAN_MOTION_DOT":0.0000634,"MEAN_MOTION_DDOT":0},{"OBJECT_NAME":"HAWK-11A","OBJECT_ID":"2024-247F","EPOCH":"2026-07-23T17:15:37.357632","CLASSIFICATION_TYPE":"U","MEAN_MOTION":15.30751708,"ECCENTRICITY":0.0002523,"INCLINATION":44.9943,"RA_OF_ASC_NODE":88.0786,"ARG_OF_PERICENTER":69.7832,"MEAN_ANOMALY":290.3323,"EPHEMERIS_TYPE":0,"NORAD_CAT_ID":62382,"ELEMENT_SET_NO":999,"REV_AT_EPOCH":8860,"BSTAR":0.00022232,"MEAN_MOTION_DOT":0.00006435,"MEAN_MOTION_DDOT":0},{"OBJECT_NAME":"HAWK-12C","OBJECT_ID":"2025-138A","EPOCH":"2026-07-23T10:06:30.561984","CLASSIFICATION_TYPE":"U","MEAN_MOTION":15.18449498,"ECCENTRICITY":0.0014522,"INCLINATION":97.4359,"RA_OF_ASC_NODE":206.2565,"ARG_OF_PERICENTER":24.7487,"MEAN_ANOMALY":335.4441,"EPHEMERIS_TYPE":0,"NORAD_CAT_ID":64621,"ELEMENT_SET_NO":999,"REV_AT_EPOCH":5936,"BSTAR":0.00017527,"MEAN_MOTION_DOT":0.00003551,"MEAN_MOTION_DDOT":0},{"OBJECT_NAME":"HAWK-12B","OBJECT_ID":"2025-138B","EPOCH":"2026-07-21T10:39:55.800576","CLASSIFICATION_TYPE":"U","MEAN_MOTION":15.18436117,"ECCENTRICITY":0.00135965,"INCLINATION":97.4484,"RA_OF_ASC_NODE":205.016,"ARG_OF_PERICENTER":27.1854,"MEAN_ANOMALY":333.0089,"EPHEMERIS_TYPE":0,"NORAD_CAT_ID":64622,"ELEMENT_SET_NO":999,"REV_AT_EPOCH":5906,"BSTAR":0.00015134503,"MEAN_MOTION_DOT":0.00003054,"MEAN_MOTION_DDOT":0}]}
