HAWK-7B                 
1 56193U 23054R   26204.40122282  .00005614  00000+0  21010-3 0  9995
2 56193  97.2682  89.0937 0000410 352.9552   7.1682 15.27698304182552
HAWK-7C                 
1 56200U 23054Y   26204.66309740  .00005313  00000+0  19896-3 0  9993
2 56200  97.2656  90.1068 0000345 239.9854 120.1351 15.27699920182594
HAWK-8A                 
1 59443U 24066B   26204.69382273  .00001063  00000+0  10441-3 0  9999
2 59443  45.5991  87.8694 0003492 252.6390 107.4109 14.99299204125310
HAWK-8B                 
1 59445U 24066D   26204.76093189  .00000690  00000+0  74331-4 0  9998
2 59445  45.6169  89.5182 0003700 256.8195 103.2274 14.99297823125314
HAWK-9A                 
1 59446U 24066E   26204.71751850  .00001191  00000+0  11495-3 0  9998
2 59446  45.6102  88.4056 0003383 241.2781 118.7761 14.99234765125314
HAWK-9C                 
1 59448U 24066G   26204.71778747  .00001285  00000+0  12259-3 0  9997
2 59448  45.6074  87.5010 0003325 228.4431 131.6165 14.99234583125319
HAWK-8C                 
1 59449U 24066H   26204.69374654  .00001053  00000+0  10364-3 0  9992
2 59449  45.6083  88.8756 0003064 260.2860  99.7675 14.99296771125307
HAWK-9B                 
1 59450U 24066J   26204.85111377  .00001395  00000+0  13149-3 0  9996
2 59450  45.6123  88.6530 0003654 224.7860 135.2727 14.99231959125336
HAWK-10A                
1 60540U 24149CA  26204.47525640  .00001270  00000+0  11657-3 0  9994
2 60540  97.6874 279.7625 0002278 328.6845  31.4240 14.96604540105415
HAWK-10B                
1 60545U 24149CF  26204.67570181  .00001336  00000+0  12232-3 0  9994
2 60545  97.6794 279.2774 0004465 345.2405  14.8685 14.96604625105443
HAWK-10C                
1 60575U 24149DM  26204.14117150  .00001446  00000+0  13201-3 0  9991
2 60575  97.6714 278.0548 0001903 311.9285  48.1774 14.96603523105360
HAWK-11B                
1 62379U 24247C   26204.71952397  .00006065  00000+0  21014-3 0  9990
2 62379  45.0157  89.4350 0002300  88.4514 271.6634 15.30752333 88608
HAWK-11C                
1 62381U 24247E   26204.71908281  .00006340  00000+0  21921-3 0  9999
2 62381  45.0045  88.7589 0003057  69.2770 290.8441 15.30753509 88609
HAWK-11A                
1 62382U 24247F   26204.71918238  .00006435  00000+0  22232-3 0  9994
2 62382  44.9943  88.0786 0002523  69.7832 290.3323 15.30751708 88601
HAWK-12C                
1 64621U 25138A   26204.42118706  .00003551  00000+0  17527-3 0  9999
2 64621  97.4359 206.2565 0014522  24.7487 335.4441 15.18449498 59360
HAWK-12B                
1 64622U 25138B   26202.44439584  .00003054  00000+0  15135-3 0  9991
2 64622  97.4484 205.0160 0013596  27.1854 333.0089 15.18436117 59066
